CTC2_L_00514001-01
1 10000U 23728OJ  26075.70048611  .00000000  00000+0  00000-0 0  9999
2 10000  97.5000   0.0000 0000000   0.0000   0.0000 15.38683946    18
CTC2_L_00514001-02
1 10001U 23142HF  26075.70048611  .00000000  00000+0  00000-0 0  9990
2 10001  97.5000   0.0000 0000000   0.0000 180.0000 15.38683946    18
CTC2_L_00514002-01
1 10002U 23354DW  26075.70048611  .00000000  00000+0  00000-0 0  9996
2 10002  97.5000  12.0000 0000000   0.0000  24.0000 15.38683946    19
CTC2_L_00514002-02
1 10003U 24070RV  26075.70048611  .00000000  00000+0  00000-0 0  9993
2 10003  97.5000  12.0000 0000000   0.0000 204.0000 15.38683946    10
CTC2_L_00514003-01
1 10004U 25361PB  26075.70048611  .00000000  00000+0  00000-0 0  9998
2 10004  97.5000  24.0000 0000000   0.0000  48.0000 15.38683946    10
CTC2_L_00514003-02
1 10005U 24712ZD  26075.70048611  .00000000  00000+0  00000-0 0  9998
2 10005  97.5000  24.0000 0000000   0.0000 228.0000 15.38683946    11
CTC2_L_00514004-01
1 10006U 24215MT  26075.70048611  .00000000  00000+0  00000-0 0  9997
2 10006  97.5000  36.0000 0000000   0.0000  72.0000 15.38683946    12
CTC2_L_00514004-02
1 10007U 25894PC  26075.70048611  .00000000  00000+0  00000-0 0  9992
2 10007  97.5000  36.0000 0000000   0.0000 252.0000 15.38683946    13
CTC2_L_00514005-01
1 10008U 23513ZV  26075.70048611  .00000000  00000+0  00000-0 0  9999
2 10008  97.5000  48.0000 0000000   0.0000  96.0000 15.38683946    13
CTC2_L_00514005-02
1 10009U 22328OV  26075.70048611  .00000000  00000+0  00000-0 0  9993
2 10009  97.5000  48.0000 0000000   0.0000 276.0000 15.38683946    14
CTC2_L_00514006-01
1 10010U 22393OF  26075.70048611  .00000000  00000+0  00000-0 0  9997
2 10010  97.5000  60.0000 0000000   0.0000 120.0000 15.38683946    18
CTC2_L_00514006-02
1 10011U 24221YX  26075.70048611  .00000000  00000+0  00000-0 0  9990
2 10011  97.5000  60.0000 0000000   0.0000 300.0000 15.38683946    19
CTC2_L_00514007-01
1 10012U 22560RF  26075.70048611  .00000000  00000+0  00000-0 0  9995
2 10012  97.5000  72.0000 0000000   0.0000 144.0000 15.38683946    19
CTC2_L_00514007-02
1 10013U 25522AJ  26075.70048611  .00000000  00000+0  00000-0 0  9997
2 10013  97.5000  72.0000 0000000   0.0000 324.0000 15.38683946    10
CTC2_L_00514008-01
1 10014U 22718QO  26075.70048611  .00000000  00000+0  00000-0 0  9992
2 10014  97.5000  84.0000 0000000   0.0000 168.0000 15.38683946    10
CTC2_L_00514008-02
1 10015U 25841OR  26075.70048611  .00000000  00000+0  00000-0 0  9993
2 10015  97.5000  84.0000 0000000   0.0000 348.0000 15.38683946    11
CTC2_L_00514009-01
1 10016U 24009TC  26075.70048611  .00000000  00000+0  00000-0 0  9999
2 10016  97.5000  96.0000 0000000   0.0000 192.0000 15.38683946    12
CTC2_L_00514009-02
1 10017U 23652ZA  26075.70048611  .00000000  00000+0  00000-0 0  9993
2 10017  97.5000  96.0000 0000000   0.0000  12.0000 15.38683946    14
CTC2_L_00514010-01
1 10018U 25222YH  26075.70048611  .00000000  00000+0  00000-0 0  9999
2 10018  97.5000 108.0000 0000000   0.0000 216.0000 15.38683946    15
CTC2_L_00514010-02
1 10019U 22475AO  26075.70048611  .00000000  00000+0  00000-0 0  9997
2 10019  97.5000 108.0000 0000000   0.0000  36.0000 15.38683946    16
CTC2_L_00514011-01
1 10020U 23778RY  26075.70048611  .00000000  00000+0  00000-0 0  9996
2 10020  97.5000 120.0000 0000000   0.0000 240.0000 15.38683946    19
CTC2_L_00514011-02
1 10021U 25766LI  26075.70048611  .00000000  00000+0  00000-0 0  9996
2 10021  97.5000 120.0000 0000000   0.0000  60.0000 15.38683946    10
CTC2_L_00514012-01
1 10022U 24361YP  26075.70048611  .00000000  00000+0  00000-0 0  9997
2 10022  97.5000 132.0000 0000000   0.0000 264.0000 15.38683946    10
CTC2_L_00514012-02
1 10023U 22666W   26075.70048611  .00000000  00000+0  00000-0 0  9994
2 10023  97.5000 132.0000 0000000   0.0000  84.0000 15.38683946    11
CTC2_L_00514013-01
1 10024U 22981JG  26075.70048611  .00000000  00000+0  00000-0 0  9995
2 10024  97.5000 144.0000 0000000   0.0000 288.0000 15.38683946    11
CTC2_L_00514013-02
1 10025U 24247HK  26075.70048611  .00000000  00000+0  00000-0 0  9993
2 10025  97.5000 144.0000 0000000   0.0000 108.0000 15.38683946    13
CTC2_L_00514014-01
1 10026U 25993WV  26075.70048611  .00000000  00000+0  00000-0 0  9993
2 10026  97.5000 156.0000 0000000   0.0000 312.0000 15.38683946    14
CTC2_L_00514014-02
1 10027U 25106MS  26075.70048611  .00000000  00000+0  00000-0 0  9990
2 10027  97.5000 156.0000 0000000   0.0000 132.0000 15.38683946    15
CTC2_L_00514015-01
1 10028U 25804DA  26075.70048611  .00000000  00000+0  00000-0 0  9996
2 10028  97.5000 168.0000 0000000   0.0000 336.0000 15.38683946    15
CTC2_L_00514015-02
1 10029U 25904BJ  26075.70048611  .00000000  00000+0  00000-0 0  9998
2 10029  97.5000 168.0000 0000000   0.0000 156.0000 15.38683946    16
CTC2_L_00514016-01
1 10030U 24805GI  26075.70048611  .00000000  00000+0  00000-0 0  9999
2 10030  97.5000 180.0000 0000000   0.0000   0.0000 15.38683946    10
CTC2_L_00514016-02
1 10031U 24473VF  26075.70048611  .00000000  00000+0  00000-0 0  9991
2 10031  97.5000 180.0000 0000000   0.0000 180.0000 15.38683946    10
CTC2_L_00514017-01
1 10032U 23697TM  26075.70048611  .00000000  00000+0  00000-0 0  9999
2 10032  97.5000 192.0000 0000000   0.0000  24.0000 15.38683946    11
CTC2_L_00514017-02
1 10033U 23980SD  26075.70048611  .00000000  00000+0  00000-0 0  9995
2 10033  97.5000 192.0000 0000000   0.0000 204.0000 15.38683946    12
CTC2_L_00514018-01
1 10034U 22445JU  26075.70048611  .00000000  00000+0  00000-0 0  9991
2 10034  97.5000 204.0000 0000000   0.0000  48.0000 15.38683946    13
CTC2_L_00514018-02
1 10035U 23484LA  26075.70048611  .00000000  00000+0  00000-0 0  9996
2 10035  97.5000 204.0000 0000000   0.0000 228.0000 15.38683946    14
CTC2_L_00514019-01
1 10036U 26721DP  26075.70048611  .00000000  00000+0  00000-0 0  9994
2 10036  97.5000 216.0000 0000000   0.0000  72.0000 15.38683946    15
CTC2_L_00514019-02
1 10037U 26861RQ  26075.70048611  .00000000  00000+0  00000-0 0  9990
2 10037  97.5000 216.0000 0000000   0.0000 252.0000 15.38683946    16
CTC2_L_00514020-01
1 10038U 22044YX  26075.70048611  .00000000  00000+0  00000-0 0  9990
2 10038  97.5000 228.0000 0000000   0.0000  96.0000 15.38683946    16
CTC2_L_00514020-02
1 10039U 26878FO  26075.70048611  .00000000  00000+0  00000-0 0  9990
2 10039  97.5000 228.0000 0000000   0.0000 276.0000 15.38683946    17
CTC2_L_00514021-01
1 10040U 22882FS  26075.70048611  .00000000  00000+0  00000-0 0  9993
2 10040  97.5000 240.0000 0000000   0.0000 120.0000 15.38683946    11
CTC2_L_00514021-02
1 10041U 22914Q   26075.70048611  .00000000  00000+0  00000-0 0  9990
2 10041  97.5000 240.0000 0000000   0.0000 300.0000 15.38683946    12
CTC2_L_00514022-01
1 10042U 25997EK  26075.70048611  .00000000  00000+0  00000-0 0  9995
2 10042  97.5000 252.0000 0000000   0.0000 144.0000 15.38683946    12
CTC2_L_00514022-02
1 10043U 22766LT  26075.70048611  .00000000  00000+0  00000-0 0  9997
2 10043  97.5000 252.0000 0000000   0.0000 324.0000 15.38683946    13
CTC2_L_00514023-01
1 10044U 23946UB  26075.70048611  .00000000  00000+0  00000-0 0  9999
2 10044  97.5000 264.0000 0000000   0.0000 168.0000 15.38683946    13
CTC2_L_00514023-02
1 10045U 26948PK  26075.70048611  .00000000  00000+0  00000-0 0  9995
2 10045  97.5000 264.0000 0000000   0.0000 348.0000 15.38683946    14
CTC2_L_00514024-01
1 10046U 23594EX  26075.70048611  .00000000  00000+0  00000-0 0  9990
2 10046  97.5000 276.0000 0000000   0.0000 192.0000 15.38683946    15
CTC2_L_00514024-02
1 10047U 25936DU  26075.70048611  .00000000  00000+0  00000-0 0  9993
2 10047  97.5000 276.0000 0000000   0.0000  12.0000 15.38683946    17
CTC2_L_00514025-01
1 10048U 22942TF  26075.70048611  .00000000  00000+0  00000-0 0  9998
2 10048  97.5000 288.0000 0000000   0.0000 216.0000 15.38683946    17
CTC2_L_00514025-02
1 10049U 25287PU  26075.70048611  .00000000  00000+0  00000-0 0  9994
2 10049  97.5000 288.0000 0000000   0.0000  36.0000 15.38683946    18
CTC2_L_00514026-01
1 10050U 26900BC  26075.70048611  .00000000  00000+0  00000-0 0  9999
2 10050  97.5000 300.0000 0000000   0.0000 240.0000 15.38683946    12
CTC2_L_00514026-02
1 10051U 24410TZ  26075.70048611  .00000000  00000+0  00000-0 0  9994
2 10051  97.5000 300.0000 0000000   0.0000  60.0000 15.38683946    13
CTC2_L_00514027-01
1 10052U 26237VK  26075.70048611  .00000000  00000+0  00000-0 0  9994
2 10052  97.5000 312.0000 0000000   0.0000 264.0000 15.38683946    13
CTC2_L_00514027-02
1 10053U 23768SO  26075.70048611  .00000000  00000+0  00000-0 0  9991
2 10053  97.5000 312.0000 0000000   0.0000  84.0000 15.38683946    14
CTC2_L_00514028-01
1 10054U 26775GL  26075.70048611  .00000000  00000+0  00000-0 0  9993
2 10054  97.5000 324.0000 0000000   0.0000 288.0000 15.38683946    14
CTC2_L_00514028-02
1 10055U 24274DR  26075.70048611  .00000000  00000+0  00000-0 0  9996
2 10055  97.5000 324.0000 0000000   0.0000 108.0000 15.38683946    16
CTC2_L_00514029-01
1 10056U 24882PC  26075.70048611  .00000000  00000+0  00000-0 0  9992
2 10056  97.5000 336.0000 0000000   0.0000 312.0000 15.38683946    17
CTC2_L_00514029-02
1 10057U 23904IU  26075.70048611  .00000000  00000+0  00000-0 0  9997
2 10057  97.5000 336.0000 0000000   0.0000 132.0000 15.38683946    18
CTC2_L_00514030-01
1 10058U 26163ML  26075.70048611  .00000000  00000+0  00000-0 0  9998
2 10058  97.5000 348.0000 0000000   0.0000 336.0000 15.38683946    18
CTC2_L_00514030-02
1 10059U 23591OZ  26075.70048611  .00000000  00000+0  00000-0 0  9991
2 10059  97.5000 348.0000 0000000   0.0000 156.0000 15.38683946    19
